[
    {
        "Altitude(m)": 612513.9584604618,
        "Argument of Periapsis(deg)": 0.0,
        "Eccentricity": 0.0,
        "Inclination(deg)": 60.0,
        "Latitude(deg)": -28.13605013686035,
        "Longitude(deg)": -62.08686235862627,
        "Mean Anomaly(deg)": -147.27269999999996,
        "RAAN(deg)": 200.0,
        "Satellite Name": "Test1 893",
        "Satellite Number": 893,
        "Semi-Major Axis(m)": 6980739.136638005,
        "Time(s)": 0
    },
    {
        "Altitude(m)": 612708.3266672575,
        "Argument of Periapsis(deg)": 0.00010418945913296404,
        "Eccentricity": 0.0,
        "Inclination(deg)": 60.0,
        "Latitude(deg)": -28.64778901847164,
        "Longitude(deg)": -61.72963119837621,
        "Mean Anomaly(deg)": -146.65259385453817,
        "RAAN(deg)": 199.99957995086027,
        "Satellite Name": "Test1 893",
        "Satellite Number": 893,
        "Semi-Major Axis(m)": 6980739.136638005,
        "Time(s)": 10
    }
]